[
    {
        "Altitude(m)": 559391.9934687825,
        "Argument of Periapsis(deg)": 0.033114955553567506,
        "Eccentricity": 0.0,
        "Inclination(deg)": 53.0,
        "Latitude(deg)": 50.9294683185277,
        "Longitude(deg)": -156.5973782149872,
        "Mean Anomaly(deg)": 75.9125643378879,
        "RAAN(deg)": 239.95071684264002,
        "Satellite Name": "Starlink Shell 1 1057",
        "Satellite Number": 1057,
        "Semi-Major Axis(m)": 6931778.249405717,
        "Time(s)": 950
    },
    {
        "Altitude(m)": 559435.2477439591,
        "Argument of Periapsis(deg)": 0.03346353403307874,
        "Eccentricity": 0.0,
        "Inclination(deg)": 53.0,
        "Latitude(deg)": 51.11820604383064,
        "Longitude(deg)": -155.6908208945229,
        "Mean Anomaly(deg)": 76.53939554144465,
        "RAAN(deg)": 239.9501980725626,
        "Satellite Name": "Starlink Shell 1 1057",
        "Satellite Number": 1057,
        "Semi-Major Axis(m)": 6931778.249405717,
        "Time(s)": 960
    },
    {
        "Altitude(m)": 559476.712292437,
        "Argument of Periapsis(deg)": 0.03381211251258998,
        "Eccentricity": 0.0,
        "Inclination(deg)": 53.0,
        "Latitude(deg)": 51.29919690217692,
        "Longitude(deg)": -154.7766746707232,
        "Mean Anomaly(deg)": 77.16622674500135,
        "RAAN(deg)": 239.94967930248512,
        "Satellite Name": "Starlink Shell 1 1057",
        "Satellite Number": 1057,
        "Semi-Major Axis(m)": 6931778.249405717,
        "Time(s)": 970
    },
    {
        "Altitude(m)": 559516.3620723265,
        "Argument of Periapsis(deg)": 0.034160690992101214,
        "Eccentricity": 0.0,
        "Inclination(deg)": 53.0,
        "Latitude(deg)": 51.47233031504893,
        "Longitude(deg)": -153.85515513313487,
        "Mean Anomaly(deg)": 77.79305794855809,
        "RAAN(deg)": 239.94916053240763,
        "Satellite Name": "Starlink Shell 1 1057",
        "Satellite Number": 1057,
        "Semi-Major Axis(m)": 6931778.249405717,
        "Time(s)": 980
    },
    {
        "Altitude(m)": 559554.1731585645,
        "Argument of Periapsis(deg)": 0.034509269471612446,
        "Eccentricity": 0.0,
        "Inclination(deg)": 53.0,
        "Latitude(deg)": 51.63749856982189,
        "Longitude(deg)": -152.92649381402498,
        "Mean Anomaly(deg)": 78.41988915211483,
        "RAAN(deg)": 239.9486417623302,
        "Satellite Name": "Starlink Shell 1 1057",
        "Satellite Number": 1057,
        "Semi-Major Axis(m)": 6931778.249405717,
        "Time(s)": 990
    }
]